{
  "norad_id": 68585,
  "name": "KUIPER-00254",
  "history": [
    {
      "epoch": "2026-04-09T12:07:01.527456Z",
      "apogee_km": 460.63242675623496,
      "perigee_km": 450.20168984164866,
      "latitude_deg": 3.6571217472725645e-05,
      "longitude_deg": 129.59224943042125,
      "height_km": 459.17153137024735,
      "semi_major_axis_km": 6833.5540582989415,
      "eccentricity": 0.0007632,
      "inclination_deg": 51.8713,
      "raan_deg": 149.1007,
      "arg_perigee_deg": 125.1432,
      "mean_anomaly_deg": 235.0271,
      "mean_motion_rev_day": 15.36854703
    }
  ]
}